{
    "links": {
        "self": "http://www.neowsapp.com/rest/v1/neo/3841170?api_key=iIulBulltgU6a56xZRHN4H3l9WmuAYTsLGpBGhQ2"
    },
    "id": "3841170",
    "neo_reference_id": "3841170",
    "name": "(2019 GH19)",
    "designation": "2019 GH19",
    "nasa_jpl_url": "http://ssd.jpl.nasa.gov/sbdb.cgi?sstr=3841170",
    "absolute_magnitude_h": 25.6,
    "estimated_diameter": {
        "kilometers": {
            "estimated_diameter_min": 0.0201629919,
            "estimated_diameter_max": 0.0450858206
        },
        "meters": {
            "estimated_diameter_min": 20.1629919443,
            "estimated_diameter_max": 45.0858206172
        },
        "miles": {
            "estimated_diameter_min": 0.0125286985,
            "estimated_diameter_max": 0.0280150214
        },
        "feet": {
            "estimated_diameter_min": 66.1515504905,
            "estimated_diameter_max": 147.9193637137
        }
    },
    "is_potentially_hazardous_asteroid": false,
    "close_approach_data": [
        {
            "close_approach_date": "2019-04-11",
            "close_approach_date_full": "2019-Apr-11 21:54",
            "epoch_date_close_approach": 1555019640000,
            "relative_velocity": {
                "kilometers_per_second": "8.6359726396",
                "kilometers_per_hour": "31089.5015026641",
                "miles_per_hour": "19317.8071975859"
            },
            "miss_distance": {
                "astronomical": "0.0432627088",
                "lunar": "16.8291937232",
                "kilometers": "6472009.086910256",
                "miles": "4021519.9662472928"
            },
            "orbiting_body": "Earth"
        }
    ],
    "orbital_data": {
        "orbit_id": "2",
        "orbit_determination_date": "2019-04-16 07:29:08",
        "first_observation_date": "2019-04-08",
        "last_observation_date": "2019-04-16",
        "data_arc_in_days": 8,
        "observations_used": 86,
        "orbit_uncertainty": "7",
        "minimum_orbit_intersection": ".0425737",
        "jupiter_tisserand_invariant": "3.270",
        "epoch_osculation": "2459000.5",
        "eccentricity": ".5662581337917285",
        "semi_major_axis": "2.405031565372322",
        "inclination": "9.002984212061074",
        "ascending_node_longitude": "198.5418100073668",
        "orbital_period": "1362.321460233545",
        "perihelion_distance": "1.043162879454392",
        "perihelion_argument": "7.392349620397884",
        "aphelion_distance": "3.766900251290253",
        "perihelion_time": "2458589.095958600956",
        "mean_anomaly": "108.7154972059722",
        "mean_motion": ".2642548110034798",
        "equinox": "J2000",
        "orbit_class": {
            "orbit_class_type": "AMO",
            "orbit_class_description": "Near-Earth asteroid orbits similar to that of 1221 Amor",
            "orbit_class_range": "1.017 AU < q (perihelion) < 1.3 AU"
        }
    },
    "is_sentry_object": false
}